{"type": "FeatureCollection", "features": [ {"type": "Feature", "properties": {"norad_id": 34077, "name": "IRIDIUM 33 DEB", "group": "iridium-33-debris", "lat": 19.055135539611, "lon": -128.05061208841735, "alt_km": 680.6638570499235, "timestamp": "2025-12-08T21:31:05.051613+00:00", "meta": {"OBJECT_NAME": "IRIDIUM 33 DEB", "OBJECT_ID": "1997-051CL", "EPOCH": "2025-12-08T14:47:19.254912", "MEAN_MOTION": 14.64744625, "ECCENTRICITY": 0.00105984, "INCLINATION": 86.3858, "RA_OF_ASC_NODE": 53.3238, "ARG_OF_PERICENTER": 52.4166, "MEAN_ANOMALY": 70.6958, "EPHEMERIS_TYPE": 0, "CLASSIFICATION_TYPE": "U", "NORAD_CAT_ID": 34077, "ELEMENT_SET_NO": 999, "REV_AT_EPOCH": 88272, "BSTAR": 0.0022567741, "MEAN_MOTION_DOT": 0.00012061, "MEAN_MOTION_DDOT": 0}, "tle": {"line1": "1 34077U 97051CL  25342.61619508  .00012061  00000+0  22568-2 0  9999", "line2": "2 34077  86.3858  53.3238 0010598  52.4166  70.6958 14.64744625882727"}}, "geometry": {"type": "Point", "coordinates": [-128.05061208841735, 19.055135539611]}}, {"type": "Feature", "properties": {"norad_id": 34079, "name": "IRIDIUM 33 DEB", "group": "iridium-33-debris", "lat": -74.33684539171944, "lon": -156.53124217460956, "alt_km": 628.5881756631688, "timestamp": "2025-12-08T21:31:05.051623+00:00", "meta": {"OBJECT_NAME": "IRIDIUM 33 DEB", "OBJECT_ID": "1997-051CN", "EPOCH": "2025-12-08T14:27:48.844224", "MEAN_MOTION": 14.83361696, "ECCENTRICITY": 0.0006131, "INCLINATION": 86.3772, "RA_OF_ASC_NODE": 10.5432, "ARG_OF_PERICENTER": 20.96, "MEAN_ANOMALY": 105.1893, "EPHEMERIS_TYPE": 0, "CLASSIFICATION_TYPE": "U", "NORAD_CAT_ID": 34079, "ELEMENT_SET_NO": 999, "REV_AT_EPOCH": 88916, "BSTAR": 0.0020759134, "MEAN_MOTION_DOT": 0.00017066, "MEAN_MOTION_DDOT": 0}, "tle": {"line1": "1 34079U 97051CN  25342.60264866  .00017066  00000+0  20759-2 0  9993", "line2": "2 34079  86.3772  10.5432 0006131  20.9600 105.1893 14.83361696889167"}}, "geometry": {"type": "Point", "coordinates": [-156.53124217460956, -74.33684539171944]}}, {"type": "Feature", "properties": {"norad_id": 34088, "name": "IRIDIUM 33 DEB", "group": "iridium-33-debris", "lat": -58.39056183038476, "lon": -141.61388440401808, "alt_km": 599.2210987252856, "timestamp": "2025-12-08T21:31:05.051634+00:00", "meta": {"OBJECT_NAME": "IRIDIUM 33 DEB", "OBJECT_ID": "1997-051CX", "EPOCH": "2025-12-08T09:14:37.873248", "MEAN_MOTION": 14.91059451, "ECCENTRICITY": 0.00054088, "INCLINATION": 86.3847, "RA_OF_ASC_NODE": 32.7243, "ARG_OF_PERICENTER": 192.5311, "MEAN_ANOMALY": 182.4929, "EPHEMERIS_TYPE": 0, "CLASSIFICATION_TYPE": "U", "NORAD_CAT_ID": 34088, "ELEMENT_SET_NO": 999, "REV_AT_EPOCH": 88677, "BSTAR": 0.0028349057, "MEAN_MOTION_DOT": 0.00028171, "MEAN_MOTION_DDOT": 0}, "tle": {"line1": "1 34088U 97051CX  25342.38516057  .00028171  00000+0  28349-2 0  9992", "line2": "2 34088  86.3847  32.7243 0005408 192.5311 182.4929 14.91059451886771"}}, "geometry": {"type": "Point", "coordinates": [-141.61388440401808, -58.39056183038476]}}, {"type": "Feature", "properties": {"norad_id": 34091, "name": "IRIDIUM 33 DEB", "group": "iridium-33-debris", "lat": -16.993912193817167, "lon": -110.28602059524239, "alt_km": 638.0519293671723, "timestamp": "2025-12-08T21:31:05.051644+00:00", "meta": {"OBJECT_NAME": "IRIDIUM 33 DEB", "OBJECT_ID": "1997-051DA", "EPOCH": "2025-12-08T12:31:21.845568", "MEAN_MOTION": 14.8131236, "ECCENTRICITY": 0.0033116, "INCLINATION": 86.3421, "RA_OF_ASC_NODE": 68.7652, "ARG_OF_PERICENTER": 308.4379, "MEAN_ANOMALY": 51.3871, "EPHEMERIS_TYPE": 0, "CLASSIFICATION_TYPE": "U", "NORAD_CAT_ID": 34091, "ELEMENT_SET_NO": 999, "REV_AT_EPOCH": 87804, "BSTAR": 0.0059410068, "MEAN_MOTION_DOT": 0.00047075, "MEAN_MOTION_DDOT": 0}, "tle": {"line1": "1 34091U 97051DA  25342.52178062  .00047075  00000+0  59410-2 0  9999", "line2": "2 34091  86.3421  68.7652 0033116 308.4379  51.3871 14.81312360878046"}}, "geometry": {"type": "Point", "coordinates": [-110.28602059524239, -16.993912193817167]}}, {"type": "Feature", "properties": {"norad_id": 34097, "name": "IRIDIUM 33 DEB", "group": "iridium-33-debris", "lat": 12.364268365939974, "lon": 3.938623569458336, "alt_km": 717.8707264987406, "timestamp": "2025-12-08T21:31:05.051655+00:00", "meta": {"OBJECT_NAME": "IRIDIUM 33 DEB", "OBJECT_ID": "1997-051DG", "EPOCH": "2025-12-08T13:05:32.172000", "MEAN_MOTION": 14.34726574, "ECCENTRICITY": 0.00830701, "INCLINATION": 86.1999, "RA_OF_ASC_NODE": 3.2587, "ARG_OF_PERICENTER": 15.8457, "MEAN_ANOMALY": 344.5308, "EPHEMERIS_TYPE": 0, "CLASSIFICATION_TYPE": "U", "NORAD_CAT_ID": 34097, "ELEMENT_SET_NO": 999, "REV_AT_EPOCH": 87059, "BSTAR": 0.0020470122, "MEAN_MOTION_DOT": 6.046e-05, "MEAN_MOTION_DDOT": 0}, "tle": {"line1": "1 34097U 97051DG  25342.54551125  .00006046  00000+0  20470-2 0  9999", "line2": "2 34097  86.1999   3.2587 0083070  15.8457 344.5308 14.34726574870599"}}, "geometry": {"type": "Point", "coordinates": [3.938623569458336, 12.364268365939974]}}, {"type": "Feature", "properties": {"norad_id": 34145, "name": "IRIDIUM 33 DEB", "group": "iridium-33-debris", "lat": 1.268016308491668, "lon": 154.15378382796865, "alt_km": 741.9922517609493, "timestamp": "2025-12-08T21:31:05.051665+00:00", "meta": {"OBJECT_NAME": "IRIDIUM 33 DEB", "OBJECT_ID": "1997-051DY", "EPOCH": "2025-12-07T23:03:04.751424", "MEAN_MOTION": 14.42235871, "ECCENTRICITY": 0.0055559, "INCLINATION": 86.2113, "RA_OF_ASC_NODE": 334.6546, "ARG_OF_PERICENTER": 109.0134, "MEAN_ANOMALY": 251.7097, "EPHEMERIS_TYPE": 0, "CLASSIFICATION_TYPE": "U", "NORAD_CAT_ID": 34145, "ELEMENT_SET_NO": 999, "REV_AT_EPOCH": 87569, "BSTAR": 0.0013920574, "MEAN_MOTION_DOT": 4.693e-05, "MEAN_MOTION_DDOT": 0}, "tle": {"line1": "1 34145U 97051DY  25341.96047166  .00004693  00000+0  13921-2 0  9992", "line2": "2 34145  86.2113 334.6546 0055559 109.0134 251.7097 14.42235871875691"}}, "geometry": {"type": "Point", "coordinates": [154.15378382796865, 1.268016308491668]}}, {"type": "Feature", "properties": {"norad_id": 34146, "name": "IRIDIUM 33 DEB", "group": "iridium-33-debris", "lat": 81.29498453653378, "lon": 16.61978854531982, "alt_km": 737.5106474828917, "timestamp": "2025-12-08T21:31:05.051676+00:00", "meta": {"OBJECT_NAME": "IRIDIUM 33 DEB", "OBJECT_ID": "1997-051DZ", "EPOCH": "2025-12-08T11:45:05.493024", "MEAN_MOTION": 14.49003578, "ECCENTRICITY": 0.00251689, "INCLINATION": 86.2833, "RA_OF_ASC_NODE": 351.6777, "ARG_OF_PERICENTER": 236.7586, "MEAN_ANOMALY": 244.1016, "EPHEMERIS_TYPE": 0, "CLASSIFICATION_TYPE": "U", "NORAD_CAT_ID": 34146, "ELEMENT_SET_NO": 999, "REV_AT_EPOCH": 88045, "BSTAR": 0.0014201517, "MEAN_MOTION_DOT": 5.425e-05, "MEAN_MOTION_DDOT": 0}, "tle": {"line1": "1 34146U 97051DZ  25342.48964691  .00005425  00000+0  14202-2 0  9999", "line2": "2 34146  86.2833 351.6777 0025168 236.7586 244.1016 14.49003578880459"}}, "geometry": {"type": "Point", "coordinates": [16.61978854531982, 81.29498453653378]}}, {"type": "Feature", "properties": {"norad_id": 34159, "name": "IRIDIUM 33 DEB", "group": "iridium-33-debris", "lat": -57.14176213939787, "lon": 44.21092398301451, "alt_km": 752.0945044726523, "timestamp": "2025-12-08T21:31:05.051686+00:00", "meta": {"OBJECT_NAME": "IRIDIUM 33 DEB", "OBJECT_ID": "1997-051EN", "EPOCH": "2025-12-08T15:06:18.156384", "MEAN_MOTION": 14.38478952, "ECCENTRICITY": 0.00260475, "INCLINATION": 86.3515, "RA_OF_ASC_NODE": 49.9941, "ARG_OF_PERICENTER": 302.3389, "MEAN_ANOMALY": 57.5287, "EPHEMERIS_TYPE": 0, "CLASSIFICATION_TYPE": "U", "NORAD_CAT_ID": 34159, "ELEMENT_SET_NO": 999, "REV_AT_EPOCH": 87900, "BSTAR": 0.00073352288, "MEAN_MOTION_DOT": 2.267e-05, "MEAN_MOTION_DDOT": 0}, "tle": {"line1": "1 34159U 97051EN  25342.62937681  .00002267  00000+0  73352-3 0  9991", "line2": "2 34159  86.3515  49.9941 0026047 302.3389  57.5287 14.38478952879004"}}, "geometry": {"type": "Point", "coordinates": [44.21092398301451, -57.14176213939787]}}, {"type": "Feature", "properties": {"norad_id": 34350, "name": "IRIDIUM 33 DEB", "group": "iridium-33-debris", "lat": -56.435643551054795, "lon": -169.97046991892157, "alt_km": 747.7549067882746, "timestamp": "2025-12-08T21:31:05.051696+00:00", "meta": {"OBJECT_NAME": "IRIDIUM 33 DEB", "OBJECT_ID": "1997-051ES", "EPOCH": "2025-12-08T12:39:42.923232", "MEAN_MOTION": 14.45373543, "ECCENTRICITY": 0.00224112, "INCLINATION": 86.3278, "RA_OF_ASC_NODE": 4.6351, "ARG_OF_PERICENTER": 148.3477, "MEAN_ANOMALY": 329.0957, "EPHEMERIS_TYPE": 0, "CLASSIFICATION_TYPE": "U", "NORAD_CAT_ID": 34350, "ELEMENT_SET_NO": 999, "REV_AT_EPOCH": 88232, "BSTAR": 0.00058126986, "MEAN_MOTION_DOT": 2.069e-05, "MEAN_MOTION_DDOT": 0}, "tle": {"line1": "1 34350U 97051ES  25342.52758013  .00002069  00000+0  58127-3 0  9996", "line2": "2 34350  86.3278   4.6351 0022411 148.3477 329.0957 14.45373543882321"}}, "geometry": {"type": "Point", "coordinates": [-169.97046991892157, -56.435643551054795]}}, {"type": "Feature", "properties": {"norad_id": 34366, "name": "IRIDIUM 33 DEB", "group": "iridium-33-debris", "lat": 83.40117447099358, "lon": 84.27386154828203, "alt_km": 699.0783262290206, "timestamp": "2025-12-08T21:31:05.051706+00:00", "meta": {"OBJECT_NAME": "IRIDIUM 33 DEB", "OBJECT_ID": "1997-051FJ", "EPOCH": "2025-12-08T15:07:22.770624", "MEAN_MOTION": 14.5400194, "ECCENTRICITY": 0.00221684, "INCLINATION": 86.3693, "RA_OF_ASC_NODE": 51.1006, "ARG_OF_PERICENTER": 152.6676, "MEAN_ANOMALY": 338.1919, "EPHEMERIS_TYPE": 0, "CLASSIFICATION_TYPE": "U", "NORAD_CAT_ID": 34366, "ELEMENT_SET_NO": 999, "REV_AT_EPOCH": 88122, "BSTAR": 0.0016654446, "MEAN_MOTION_DOT": 7.063e-05, "MEAN_MOTION_DDOT": 0}, "tle": {"line1": "1 34366U 97051FJ  25342.63012466  .00007063  00000+0  16654-2 0  9997", "line2": "2 34366  86.3693  51.1006 0022168 152.6676 338.1919 14.54001940881227"}}, "geometry": {"type": "Point", "coordinates": [84.27386154828203, 83.40117447099358]}}]}